{"type": "FeatureCollection", "features": [ {"type": "Feature", "properties": {"norad_id": 32384, "name": "GPS BIIRM-5 (PRN 29)", "group": "gps-ops", "lat": -50.34266433724231, "lon": 158.39933257824165, "alt_km": 20182.298071766596, "timestamp": "2025-12-17T21:39:45.947050+00:00", "meta": {"OBJECT_NAME": "GPS BIIRM-5 (PRN 29)", "OBJECT_ID": "2007-062A", "EPOCH": "2025-12-16T19:22:21.732672", "MEAN_MOTION": 2.00577594, "ECCENTRICITY": 0.0032249, "INCLINATION": 55.1786, "RA_OF_ASC_NODE": 281.4828, "ARG_OF_PERICENTER": 162.2986, "MEAN_ANOMALY": 15.9546, "EPHEMERIS_TYPE": 0, "CLASSIFICATION_TYPE": "U", "NORAD_CAT_ID": 32384, "ELEMENT_SET_NO": 999, "REV_AT_EPOCH": 13185, "BSTAR": 0, "MEAN_MOTION_DOT": -6.1e-07, "MEAN_MOTION_DDOT": 0}, "tle": {"line1": "1 32384U 07062A   25350.80719598 -.00000061  00000+0  00000+0 0  9993", "line2": "2 32384  55.1786 281.4828 0032249 162.2986  15.9546  2.00577594131858"}}, "geometry": {"type": "Point", "coordinates": [158.39933257824165, -50.34266433724231]}}, {"type": "Feature", "properties": {"norad_id": 32711, "name": "GPS BIIRM-6 (PRN 07)", "group": "gps-ops", "lat": 7.1080610108369235, "lon": -27.95554174967922, "alt_km": 20021.484028977236, "timestamp": "2025-12-17T21:39:45.947060+00:00", "meta": {"OBJECT_NAME": "GPS BIIRM-6 (PRN 07)", "OBJECT_ID": "2008-012A", "EPOCH": "2025-12-16T03:55:52.800384", "MEAN_MOTION": 2.00565827, "ECCENTRICITY": 0.0202594, "INCLINATION": 54.4775, "RA_OF_ASC_NODE": 157.2362, "ARG_OF_PERICENTER": 244.9852, "MEAN_ANOMALY": 112.9072, "EPHEMERIS_TYPE": 0, "CLASSIFICATION_TYPE": "U", "NORAD_CAT_ID": 32711, "ELEMENT_SET_NO": 999, "REV_AT_EPOCH": 13008, "BSTAR": 0, "MEAN_MOTION_DOT": 8.9e-07, "MEAN_MOTION_DDOT": 0}, "tle": {"line1": "1 32711U 08012A   25350.16380556  .00000089  00000+0  00000+0 0  9999", "line2": "2 32711  54.4775 157.2362 0202594 244.9852 112.9072  2.00565827130089"}}, "geometry": {"type": "Point", "coordinates": [-27.95554174967922, 7.1080610108369235]}}, {"type": "Feature", "properties": {"norad_id": 35752, "name": "GPS BIIRM-8 (PRN 05)", "group": "gps-ops", "lat": -11.508767689120859, "lon": -137.53560700026782, "alt_km": 20234.95490573735, "timestamp": "2025-12-17T21:39:45.947070+00:00", "meta": {"OBJECT_NAME": "GPS BIIRM-8 (PRN 05)", "OBJECT_ID": "2009-043A", "EPOCH": "2025-12-15T22:20:02.106816", "MEAN_MOTION": 2.00565586, "ECCENTRICITY": 0.00517182, "INCLINATION": 56.0932, "RA_OF_ASC_NODE": 34.6571, "ARG_OF_PERICENTER": 81.8462, "MEAN_ANOMALY": 127.6063, "EPHEMERIS_TYPE": 0, "CLASSIFICATION_TYPE": "U", "NORAD_CAT_ID": 35752, "ELEMENT_SET_NO": 999, "REV_AT_EPOCH": 11968, "BSTAR": 0, "MEAN_MOTION_DOT": -8.6e-07, "MEAN_MOTION_DDOT": 0}, "tle": {"line1": "1 35752U 09043A   25349.93057994 -.00000086  00000+0  00000+0 0  9990", "line2": "2 35752  56.0932  34.6571 0051718  81.8462 127.6063  2.00565586119683"}}, "geometry": {"type": "Point", "coordinates": [-137.53560700026782, -11.508767689120859]}}, {"type": "Feature", "properties": {"norad_id": 36585, "name": "GPS BIIF-1  (PRN 25)", "group": "gps-ops", "lat": -38.35292688685522, "lon": -178.78347723192707, "alt_km": 20325.609782658146, "timestamp": "2025-12-17T21:39:45.947080+00:00", "meta": {"OBJECT_NAME": "GPS BIIF-1  (PRN 25)", "OBJECT_ID": "2010-022A", "EPOCH": "2025-12-16T01:01:22.883808", "MEAN_MOTION": 2.00553454, "ECCENTRICITY": 0.01262565, "INCLINATION": 54.2996, "RA_OF_ASC_NODE": 215.9407, "ARG_OF_PERICENTER": 65.1133, "MEAN_ANOMALY": 343.5127, "EPHEMERIS_TYPE": 0, "CLASSIFICATION_TYPE": "U", "NORAD_CAT_ID": 36585, "ELEMENT_SET_NO": 999, "REV_AT_EPOCH": 11392, "BSTAR": 0, "MEAN_MOTION_DOT": 7.2e-07, "MEAN_MOTION_DDOT": 0}, "tle": {"line1": "1 36585U 10022A   25350.04262597  .00000072  00000+0  00000+0 0  9999", "line2": "2 36585  54.2996 215.9407 0126256  65.1133 343.5127  2.00553454113922"}}, "geometry": {"type": "Point", "coordinates": [-178.78347723192707, -38.35292688685522]}}, {"type": "Feature", "properties": {"norad_id": 38833, "name": "GPS BIIF-3  (PRN 24)", "group": "gps-ops", "lat": 37.20159888031721, "lon": -174.85634214570422, "alt_km": 19726.48543136533, "timestamp": "2025-12-17T21:39:45.947090+00:00", "meta": {"OBJECT_NAME": "GPS BIIF-3  (PRN 24)", "OBJECT_ID": "2012-053A", "EPOCH": "2025-12-16T20:09:13.627584", "MEAN_MOTION": 2.00565075, "ECCENTRICITY": 0.01759464, "INCLINATION": 53.5585, "RA_OF_ASC_NODE": 151.0706, "ARG_OF_PERICENTER": 64.0575, "MEAN_ANOMALY": 297.7402, "EPHEMERIS_TYPE": 0, "CLASSIFICATION_TYPE": "U", "NORAD_CAT_ID": 38833, "ELEMENT_SET_NO": 999, "REV_AT_EPOCH": 9578, "BSTAR": 0, "MEAN_MOTION_DOT": 7.2e-07, "MEAN_MOTION_DDOT": 0}, "tle": {"line1": "1 38833U 12053A   25350.83974106  .00000072  00000+0  00000+0 0  9996", "line2": "2 38833  53.5585 151.0706 0175946  64.0575 297.7402  2.00565075 95787"}}, "geometry": {"type": "Point", "coordinates": [-174.85634214570422, 37.20159888031721]}}, {"type": "Feature", "properties": {"norad_id": 39166, "name": "GPS BIIF-4  (PRN 27)", "group": "gps-ops", "lat": 25.299044912843982, "lon": 76.76818915730729, "alt_km": 20236.92536889819, "timestamp": "2025-12-17T21:39:45.947100+00:00", "meta": {"OBJECT_NAME": "GPS BIIF-4  (PRN 27)", "OBJECT_ID": "2013-023A", "EPOCH": "2025-12-15T04:59:33.811872", "MEAN_MOTION": 2.00564736, "ECCENTRICITY": 0.01378529, "INCLINATION": 54.65, "RA_OF_ASC_NODE": 276.4679, "ARG_OF_PERICENTER": 48.4851, "MEAN_ANOMALY": 312.7012, "EPHEMERIS_TYPE": 0, "CLASSIFICATION_TYPE": "U", "NORAD_CAT_ID": 39166, "ELEMENT_SET_NO": 999, "REV_AT_EPOCH": 9219, "BSTAR": 0, "MEAN_MOTION_DOT": -6.8e-07, "MEAN_MOTION_DDOT": 0}, "tle": {"line1": "1 39166U 13023A   25349.20803023 -.00000068  00000+0  00000+0 0  9998", "line2": "2 39166  54.6500 276.4679 0137852  48.4851 312.7012  2.00564736 92194"}}, "geometry": {"type": "Point", "coordinates": [76.76818915730729, 25.299044912843982]}}, {"type": "Feature", "properties": {"norad_id": 39533, "name": "GPS BIIF-5  (PRN 30)", "group": "gps-ops", "lat": 24.73092196927823, "lon": -43.14582640264, "alt_km": 20132.65432908594, "timestamp": "2025-12-17T21:39:45.947110+00:00", "meta": {"OBJECT_NAME": "GPS BIIF-5  (PRN 30)", "OBJECT_ID": "2014-008A", "EPOCH": "2025-12-17T04:42:21.782016", "MEAN_MOTION": 2.00574699, "ECCENTRICITY": 0.00793343, "INCLINATION": 53.632, "RA_OF_ASC_NODE": 156.7429, "ARG_OF_PERICENTER": 226.5757, "MEAN_ANOMALY": 132.7662, "EPHEMERIS_TYPE": 0, "CLASSIFICATION_TYPE": "U", "NORAD_CAT_ID": 39533, "ELEMENT_SET_NO": 999, "REV_AT_EPOCH": 8603, "BSTAR": 0, "MEAN_MOTION_DOT": 7.8e-07, "MEAN_MOTION_DDOT": 0}, "tle": {"line1": "1 39533U 14008A   25351.19608544  .00000078  00000+0  00000+0 0  9992", "line2": "2 39533  53.6320 156.7429 0079334 226.5757 132.7662  2.00574699 86034"}}, "geometry": {"type": "Point", "coordinates": [-43.14582640264, 24.73092196927823]}}, {"type": "Feature", "properties": {"norad_id": 39741, "name": "GPS BIIF-6  (PRN 06)", "group": "gps-ops", "lat": -43.173007468361206, "lon": -59.708532689013595, "alt_km": 20086.114309251807, "timestamp": "2025-12-17T21:39:45.947120+00:00", "meta": {"OBJECT_NAME": "GPS BIIF-6  (PRN 06)", "OBJECT_ID": "2014-026A", "EPOCH": "2025-12-16T11:34:54.885216", "MEAN_MOTION": 2.00561186, "ECCENTRICITY": 0.00392879, "INCLINATION": 56.5821, "RA_OF_ASC_NODE": 338.6307, "ARG_OF_PERICENTER": 318.9019, "MEAN_ANOMALY": 40.8126, "EPHEMERIS_TYPE": 0, "CLASSIFICATION_TYPE": "U", "NORAD_CAT_ID": 39741, "ELEMENT_SET_NO": 999, "REV_AT_EPOCH": 8487, "BSTAR": 0, "MEAN_MOTION_DOT": -8.7e-07, "MEAN_MOTION_DDOT": 0}, "tle": {"line1": "1 39741U 14026A   25350.48257969 -.00000087  00000+0  00000+0 0  9996", "line2": "2 39741  56.5821 338.6307 0039287 318.9019  40.8126  2.00561186 84870"}}, "geometry": {"type": "Point", "coordinates": [-59.708532689013595, -43.173007468361206]}}, {"type": "Feature", "properties": {"norad_id": 40105, "name": "GPS BIIF-7  (PRN 09)", "group": "gps-ops", "lat": -47.08325523296087, "lon": -36.05761414236208, "alt_km": 20233.671109167306, "timestamp": "2025-12-17T21:39:45.947130+00:00", "meta": {"OBJECT_NAME": "GPS BIIF-7  (PRN 09)", "OBJECT_ID": "2014-045A", "EPOCH": "2025-12-15T01:46:50.034144", "MEAN_MOTION": 2.00572752, "ECCENTRICITY": 0.00326343, "INCLINATION": 55.2306, "RA_OF_ASC_NODE": 95.8057, "ARG_OF_PERICENTER": 119.9544, "MEAN_ANOMALY": 240.3532, "EPHEMERIS_TYPE": 0, "CLASSIFICATION_TYPE": "U", "NORAD_CAT_ID": 40105, "ELEMENT_SET_NO": 999, "REV_AT_EPOCH": 8238, "BSTAR": 0, "MEAN_MOTION_DOT": -3.6e-07, "MEAN_MOTION_DDOT": 0}, "tle": {"line1": "1 40105U 14045A   25349.07419021 -.00000036  00000+0  00000+0 0  9999", "line2": "2 40105  55.2306  95.8057 0032634 119.9544 240.3532  2.00572752 82388"}}, "geometry": {"type": "Point", "coordinates": [-36.05761414236208, -47.08325523296087]}}, {"type": "Feature", "properties": {"norad_id": 40294, "name": "GPS BIIF-8  (PRN 03)", "group": "gps-ops", "lat": -24.489730267631323, "lon": 20.669277246616556, "alt_km": 20208.80777483309, "timestamp": "2025-12-17T21:39:45.947140+00:00", "meta": {"OBJECT_NAME": "GPS BIIF-8  (PRN 03)", "OBJECT_ID": "2014-068A", "EPOCH": "2025-12-16T22:42:57.008160", "MEAN_MOTION": 2.00565217, "ECCENTRICITY": 0.00607888, "INCLINATION": 56.8609, "RA_OF_ASC_NODE": 37.9832, "ARG_OF_PERICENTER": 69.0803, "MEAN_ANOMALY": 291.6294, "EPHEMERIS_TYPE": 0, "CLASSIFICATION_TYPE": "U", "NORAD_CAT_ID": 40294, "ELEMENT_SET_NO": 999, "REV_AT_EPOCH": 8155, "BSTAR": 0, "MEAN_MOTION_DOT": -7.8e-07, "MEAN_MOTION_DDOT": 0}, "tle": {"line1": "1 40294U 14068A   25350.94649315 -.00000078  00000+0  00000+0 0  9998", "line2": "2 40294  56.8609  37.9832 0060788  69.0803 291.6294  2.00565217 81552"}}, "geometry": {"type": "Point", "coordinates": [20.669277246616556, -24.489730267631323]}}]}